[{"OBJECT_NAME":"YINHE-1","OBJECT_ID":"2020-004A","EPOCH":"2026-03-09T22:55:05.644416","MEAN_MOTION":14.79015566,"ECCENTRICITY":0.00131658,"INCLINATION":86.3997,"RA_OF_ASC_NODE":160.1115,"ARG_OF_PERICENTER":358.9121,"MEAN_ANOMALY":1.2068,"EPHEMERIS_TYPE":0,"CLASSIFICATION_TYPE":"U","NORAD_CAT_ID":45024,"ELEMENT_SET_NO":999,"REV_AT_EPOCH":33125,"BSTAR":0.00018596346,"MEAN_MOTION_DOT":1.401e-5,"MEAN_MOTION_DDOT":0},{"OBJECT_NAME":"CZ-6A DEB","OBJECT_ID":"2022-151MS","EPOCH":"2026-03-09T14:56:00.417120","MEAN_MOTION":14.80772363,"ECCENTRICITY":0.00459097,"INCLINATION":98.5208,"RA_OF_ASC_NODE":115.988,"ARG_OF_PERICENTER":225.5358,"MEAN_ANOMALY":134.2094,"EPHEMERIS_TYPE":0,"CLASSIFICATION_TYPE":"U","NORAD_CAT_ID":54592,"ELEMENT_SET_NO":999,"REV_AT_EPOCH":17533,"BSTAR":0.0033352275,"MEAN_MOTION_DOT":0.00026194,"MEAN_MOTION_DDOT":0}]
